{
  "type": "FeatureCollection",
  "features": [
    {
      "type": "Feature",
      "properties": {
        "norad_id": 34648,
        "name": "IRIDIUM 33 DEB",
        "group": "iridium-33-debris",
        "lat": 49.29262352035332,
        "lon": 91.73689325711399,
        "alt_km": 914.0963614754319,
        "timestamp": "2025-12-27T14:26:30.906464+00:00",
        "meta_object_name": "IRIDIUM 33 DEB",
        "meta_object_id": "1997-051JZ",
        "meta_epoch": "2025-12-26T17:23:51.360000",
        "meta_mean_motion": 14.11887507,
        "meta_eccentricity": 0.01778864,
        "meta_inclination": 86.3901,
        "meta_ra_of_asc_node": 276.2989,
        "meta_arg_of_pericenter": 254.825,
        "meta_mean_anomaly": 103.3201,
        "meta_ephemeris_type": 0,
        "meta_classification_type": "U",
        "meta_norad_cat_id": 34648,
        "meta_element_set_no": 999,
        "meta_rev_at_epoch": 85158,
        "meta_bstar": 0.0061458154,
        "meta_mean_motion_dot": 0.00013057,
        "meta_mean_motion_ddot": 0,
        "tle_line1": "1 34648U 97051JZ  25360.72490000  .00013057  00000+0  61458-2 0  9996",
        "tle_line2": "2 34648  86.3901 276.2989 0177886 254.8250 103.3201 14.11887507851589"
      },
      "geometry": {
        "type": "Point",
        "coordinates": [
          91.73689325711399,
          49.29262352035332
        ]
      }
    },
    {
      "type": "Feature",
      "properties": {
        "norad_id": 34651,
        "name": "IRIDIUM 33 DEB",
        "group": "iridium-33-debris",
        "lat": -51.61345098099172,
        "lon": -41.03869918504637,
        "alt_km": 783.7468113301711,
        "timestamp": "2025-12-27T14:26:30.906475+00:00",
        "meta_object_name": "IRIDIUM 33 DEB",
        "meta_object_id": "1997-051KC",
        "meta_epoch": "2025-12-25T15:53:57.959232",
        "meta_mean_motion": 14.26027654,
        "meta_eccentricity": 0.0142018,
        "meta_inclination": 86.2827,
        "meta_ra_of_asc_node": 135.0795,
        "meta_arg_of_pericenter": 163.1805,
        "meta_mean_anomaly": 197.4168,
        "meta_ephemeris_type": 0,
        "meta_classification_type": "U",
        "meta_norad_cat_id": 34651,
        "meta_element_set_no": 999,
        "meta_rev_at_epoch": 86080,
        "meta_bstar": 0.0036817,
        "meta_mean_motion_dot": 9.797e-05,
        "meta_mean_motion_ddot": 0,
        "tle_line1": "1 34651U 97051KC  25359.66247638  .00009797  00000+0  36817-2 0  9995",
        "tle_line2": "2 34651  86.2827 135.0795 0142018 163.1805 197.4168 14.26027654860809"
      },
      "geometry": {
        "type": "Point",
        "coordinates": [
          -41.03869918504637,
          -51.61345098099172
        ]
      }
    },
    {
      "type": "Feature",
      "properties": {
        "norad_id": 34652,
        "name": "IRIDIUM 33 DEB",
        "group": "iridium-33-debris",
        "lat": 54.36738730980447,
        "lon": -21.4819656445273,
        "alt_km": 698.8430654142567,
        "timestamp": "2025-12-27T14:26:30.906486+00:00",
        "meta_object_name": "IRIDIUM 33 DEB",
        "meta_object_id": "1997-051KD",
        "meta_epoch": "2025-12-27T06:16:50.056608",
        "meta_mean_motion": 14.62192281,
        "meta_eccentricity": 0.00255029,
        "meta_inclination": 86.3321,
        "meta_ra_of_asc_node": 333.535,
        "meta_arg_of_pericenter": 244.7138,
        "meta_mean_anomaly": 180.9757,
        "meta_ephemeris_type": 0,
        "meta_classification_type": "U",
        "meta_norad_cat_id": 34652,
        "meta_element_set_no": 999,
        "meta_rev_at_epoch": 88696,
        "meta_bstar": 0.0010804277,
        "meta_mean_motion_dot": 5.485e-05,
        "meta_mean_motion_ddot": 0,
        "tle_line1": "1 34652U 97051KD  25361.26169047  .00005485  00000+0  10804-2 0  9990",
        "tle_line2": "2 34652  86.3321 333.5350 0025502 244.7138 180.9757 14.62192281886960"
      },
      "geometry": {
        "type": "Point",
        "coordinates": [
          -21.4819656445273,
          54.36738730980447
        ]
      }
    },
    {
      "type": "Feature",
      "properties": {
        "norad_id": 34690,
        "name": "IRIDIUM 33 DEB",
        "group": "iridium-33-debris",
        "lat": -82.2892147694062,
        "lon": -121.56996228883584,
        "alt_km": 714.7307956146606,
        "timestamp": "2025-12-27T14:26:30.906519+00:00",
        "meta_object_name": "IRIDIUM 33 DEB",
        "meta_object_id": "1997-051KM",
        "meta_epoch": "2025-12-26T19:53:36.427776",
        "meta_mean_motion": 14.55146043,
        "meta_eccentricity": 0.00092349,
        "meta_inclination": 86.3773,
        "meta_ra_of_asc_node": 30.867,
        "meta_arg_of_pericenter": 341.6712,
        "meta_mean_anomaly": 195.6004,
        "meta_ephemeris_type": 0,
        "meta_classification_type": "U",
        "meta_norad_cat_id": 34690,
        "meta_element_set_no": 999,
        "meta_rev_at_epoch": 88299,
        "meta_bstar": 0.00044241179,
        "meta_mean_motion_dot": 1.932e-05,
        "meta_mean_motion_ddot": 0,
        "tle_line1": "1 34690U 97051KM  25360.82889384  .00001932  00000+0  44241-3 0  9992",
        "tle_line2": "2 34690  86.3773  30.8670 0009234 341.6712 195.6004 14.55146043882998"
      },
      "geometry": {
        "type": "Point",
        "coordinates": [
          -121.56996228883584,
          -82.2892147694062
        ]
      }
    },
    {
      "type": "Feature",
      "properties": {
        "norad_id": 34693,
        "name": "IRIDIUM 33 DEB",
        "group": "iridium-33-debris",
        "lat": -22.06095715850717,
        "lon": -65.07903615900403,
        "alt_km": 471.89154968299954,
        "timestamp": "2025-12-27T14:26:30.906534+00:00",
        "meta_object_name": "IRIDIUM 33 DEB",
        "meta_object_id": "1997-051KQ",
        "meta_epoch": "2025-12-26T19:48:57.228768",
        "meta_mean_motion": 15.31583943,
        "meta_eccentricity": 0.00088429,
        "meta_inclination": 86.3049,
        "meta_ra_of_asc_node": 296.8095,
        "meta_arg_of_pericenter": 29.7643,
        "meta_mean_anomaly": 351.8395,
        "meta_ephemeris_type": 0,
        "meta_classification_type": "U",
        "meta_norad_cat_id": 34693,
        "meta_element_set_no": 999,
        "meta_rev_at_epoch": 89130,
        "meta_bstar": 0.005056928,
        "meta_mean_motion_dot": 0.00157281,
        "meta_mean_motion_ddot": 0,
        "tle_line1": "1 34693U 97051KQ  25360.82566237  .00157281  00000+0  50569-2 0  9992",
        "tle_line2": "2 34693  86.3049 296.8095 0008842  29.7643 351.8395 15.31583943891306"
      },
      "geometry": {
        "type": "Point",
        "coordinates": [
          -65.07903615900403,
          -22.06095715850717
        ]
      }
    },
    {
      "type": "Feature",
      "properties": {
        "norad_id": 34696,
        "name": "IRIDIUM 33 DEB",
        "group": "iridium-33-debris",
        "lat": -53.989121063834574,
        "lon": -154.12888517541288,
        "alt_km": 704.6056987468837,
        "timestamp": "2025-12-27T14:26:30.906545+00:00",
        "meta_object_name": "IRIDIUM 33 DEB",
        "meta_object_id": "1997-051KT",
        "meta_epoch": "2025-12-27T02:10:03.448416",
        "meta_mean_motion": 14.65770071,
        "meta_eccentricity": 0.00737714,
        "meta_inclination": 86.1861,
        "meta_ra_of_asc_node": 20.8432,
        "meta_arg_of_pericenter": 119.2353,
        "meta_mean_anomaly": 297.1257,
        "meta_ephemeris_type": 0,
        "meta_classification_type": "U",
        "meta_norad_cat_id": 34696,
        "meta_element_set_no": 999,
        "meta_rev_at_epoch": 86883,
        "meta_bstar": 0.0050796435,
        "meta_mean_motion_dot": 0.00028933,
        "meta_mean_motion_ddot": 0,
        "tle_line1": "1 34696U 97051KT  25361.09031769  .00028933  00000+0  50796-2 0  9995",
        "tle_line2": "2 34696  86.1861  20.8432 0073771 119.2353 297.1257 14.65770071868832"
      },
      "geometry": {
        "type": "Point",
        "coordinates": [
          -154.12888517541288,
          -53.989121063834574
        ]
      }
    },
    {
      "type": "Feature",
      "properties": {
        "norad_id": 34765,
        "name": "IRIDIUM 33 DEB",
        "group": "iridium-33-debris",
        "lat": -50.091501561158076,
        "lon": -149.22535322783727,
        "alt_km": 759.2670014837549,
        "timestamp": "2025-12-27T14:26:30.906556+00:00",
        "meta_object_name": "IRIDIUM 33 DEB",
        "meta_object_id": "1997-051LJ",
        "meta_epoch": "2025-12-27T02:00:13.091040",
        "meta_mean_motion": 14.40501375,
        "meta_eccentricity": 0.00169933,
        "meta_inclination": 86.3377,
        "meta_ra_of_asc_node": 26.6052,
        "meta_arg_of_pericenter": 163.84,
        "meta_mean_anomaly": 260.2304,
        "meta_ephemeris_type": 0,
        "meta_classification_type": "U",
        "meta_norad_cat_id": 34765,
        "meta_element_set_no": 999,
        "meta_rev_at_epoch": 87820,
        "meta_bstar": 0.00044425605,
        "meta_mean_motion_dot": 1.435e-05,
        "meta_mean_motion_ddot": 0,
        "tle_line1": "1 34765U 97051LJ  25361.08348485  .00001435  00000+0  44426-3 0  9999",
        "tle_line2": "2 34765  86.3377  26.6052 0016993 163.8400 260.2304 14.40501375878204"
      },
      "geometry": {
        "type": "Point",
        "coordinates": [
          -149.22535322783727,
          -50.091501561158076
        ]
      }
    }
  ]
}